$$SOE
2460721.500000000, A.D. 2025-Feb-15 00:00:00.0000, 1.938509473026687E+08, -2.242598543300947E+08, -3.040072200487339E+07,
2460728.500000000, A.D. 2025-Feb-22 00:00:00.0000, 2.035190854454803E+08, -2.171201814816326E+08, -2.678868372255075E+07,
2460735.500000000, A.D. 2025-Mar-01 00:00:00.0000, 2.128169360682338E+08, -2.095854760745344E+08, -2.312789254736924E+07,
2460742.500000000, A.D. 2025-Mar-08 00:00:00.0000, 2.217306398876883E+08, -2.016724580726692E+08, -1.942534239313360E+07,
2460749.500000000, A.D. 2025-Mar-15 00:00:00.0000, 2.302471754234161E+08, -1.933981991561303E+08, -1.568798642671993E+07,
2460756.500000000, A.D. 2025-Mar-22 00:00:00.0000, 2.383543478974093E+08, -1.847800873879001E+08, -1.192272853192741E+07,
2460763.500000000, A.D. 2025-Mar-29 00:00:00.0000, 2.460407786150610E+08, -1.758357961367079E+08, -8.136415789645359E+06,
2460770.500000000, A.D. 2025-Apr-05 00:00:00.0000, 2.532958953416058E+08, -1.665832540574545E+08, -4.335831701027088E+06,
2460777.500000000, A.D. 2025-Apr-12 00:00:00.0000, 2.601099219226877E+08, -1.570406159594268E+08, -5.276899216148183E+05,
2460784.500000000, A.D. 2025-Apr-19 00:00:00.0000, 2.664738671200356E+08, -1.472262353696754E+08, 3.281371485618122E+06,
2460791.500000000, A.D. 2025-Apr-26 00:00:00.0000, 2.723795130773661E+08, -1.371586389132150E+08, 7.084795283200130E+06,
2460798.500000000, A.D. 2025-May-03 00:00:00.0000, 2.778194036605270E+08, -1.268565024041227E+08, 1.087610981487935E+07,
2460805.500000000, A.D. 2025-May-10 00:00:00.0000, 2.827868328185950E+08, -1.163386285486954E+08, 1.464893332705054E+07,
2460812.500000000, A.D. 2025-May-17 00:00:00.0000, 2.872758331079756E+08, -1.056239262098700E+08, 1.839697789286658E+07,
2460819.500000000, A.D. 2025-May-24 00:00:00.0000, 2.912811646432825E+08, -9.473139119294727E+07, 2.211405296013442E+07,
2460826.500000000, A.D. 2025-May-31 00:00:00.0000, 2.947983049702578E+08, -8.368008813990954E+07, 2.579406854921319E+07,
2460833.500000000, A.D. 2025-Jun-07 00:00:00.0000, 2.978234395382070E+08, -7.248913222343600E+07, 2.943103827619108E+07,
2460840.500000000, A.D. 2025-Jun-14 00:00:00.0000, 3.003534504834369E+08, -6.117767121397057E+07, 3.301908240518085E+07,
2460847.500000000, A.D. 2025-Jun-21 00:00:00.0000, 3.023859049962124E+08, -4.976487110060668E+07, 3.655243058897519E+07,
2460854.500000000, A.D. 2025-Jun-28 00:00:00.0000, 3.039190464411924E+08, -3.826990340447814E+07, 4.002542419080047E+07,
2460861.500000000, A.D. 2025-Jul-05 00:00:00.0000, 3.049517867524773E+08, -2.671193193446280E+07, 4.343251853734220E+07,
2460868.500000000, A.D. 2025-Jul-12 00:00:00.0000, 3.054836989391055E+08, -1.511009970209843E+07, 4.676828517763130E+07,
2460875.500000000, A.D. 2025-Jul-19 00:00:00.0000, 3.055150099030100E+08, -3.483516479638584E+06, 5.002741410820659E+07,
2460882.500000000, A.D. 2025-Jul-26 00:00:00.0000, 3.050465937861002E+08, 8.148753042406995E+06, 5.320471596177766E+07,
2460889.500000000, A.D. 2025-Aug-02 00:00:00.0000, 3.040799659243091E+08, 1.976770062598298E+07, 5.629512417920248E+07,
2460896.500000000, A.D. 2025-Aug-09 00:00:00.0000, 3.026172774518043E+08, 3.135438547108820E+07, 5.929369719202132E+07,
2460903.500000000, A.D. 2025-Aug-16 00:00:00.0000, 3.006613106502267E+08, 4.288994484273577E+07, 6.219562063710713E+07,
2460910.500000000, A.D. 2025-Aug-23 00:00:00.0000, 2.982154753414356E+08, 5.435560443547477E+07, 6.499620960836505E+07,
2460917.500000000, A.D. 2025-Aug-30 00:00:00.0000, 2.952838066395862E+08, 6.573268926756120E+07, 6.769091099589188E+07,
2460924.500000000, A.D. 2025-Sep-06 00:00:00.0000, 2.918709626215625E+08, 7.700263619459853E+07, 7.027530614403921E+07,
2460931.500000000, A.D. 2025-Sep-13 00:00:00.0000, 2.879822202335779E+08, 8.814700565171257E+07, 7.274511380477236E+07,
2460938.500000000, A.D. 2025-Sep-20 00:00:00.0000, 2.836234726901247E+08, 9.914749105934648E+07, 7.509619297399896E+07,
2460945.500000000, A.D. 2025-Sep-27 00:00:00.0000, 2.788012293899535E+08, 1.099859290853831E+08, 7.732454578425725E+07,
2460952.500000000, A.D. 2025-Oct-04 00:00:00.0000, 2.735226162971231E+08, 1.206443113875430E+08, 7.942632070041297E+07,
2460959.500000000, A.D. 2025-Oct-11 00:00:00.0000, 2.677953763770662E+08, 1.311047969748724E+08, 8.139781599293974E+07,
2460966.500000000, A.D. 2025-Oct-18 00:00:00.0000, 2.616278703287758E+08, 1.413497249930235E+08, 8.323548345464279E+07,
2460973.500000000, A.D. 2025-Oct-25 00:00:00.0000, 2.550290777024791E+08, 1.513616280229906E+08, 8.493593235972701E+07,
2460980.500000000, A.D. 2025-Nov-01 00:00:00.0000, 2.480085983846072E+08, 1.611232459890604E+08, 8.649593367120704E+07,
2460987.500000000, A.D. 2025-Nov-08 00:00:00.0000, 2.405766544205999E+08, 1.706175407276482E+08, 8.791242449903497E+07,
2460994.500000000, A.D. 2025-Nov-15 00:00:00.0000, 2.327440922550005E+08, 1.798277112439367E+08, 8.918251280092645E+07,
2461001.500000000, A.D. 2025-Nov-22 00:00:00.0000, 2.245223857212592E+08, 1.887372099606939E+08, 9.030348232017612E+07,
2461008.500000000, A.D. 2025-Nov-29 00:00:00.0000, 2.159236395520181E+08, 1.973297611690745E+08, 9.127279787762040E+07,
2461015.500000000, A.D. 2025-Dec-06 00:00:00.0000, 2.069605910376819E+08, 2.055893816153563E+08, 9.208811121917675E+07,
2461022.500000000, A.D. 2025-Dec-13 00:00:00.0000, 1.976466101701362E+08, 2.135003999339197E+08, 9.274726711474474E+07,
2461029.500000000, A.D. 2025-Dec-20 00:00:00.0000, 1.879957016738334E+08, 2.210474760191122E+08, 9.324830948061395E+07,
2461036.500000000, A.D. 2025-Dec-27 00:00:00.0000, 1.780225077379250E+08, 2.282156229836677E+08, 9.358948783098413E+07,
2461043.500000000, A.D. 2026-Jan-03 00:00:00.0000, 1.677423098632072E+08, 2.349902311460953E+08, 9.376926413540189E+07,
2461050.500000000, A.D. 2026-Jan-10 00:00:00.0000, 1.571710298000784E+08, 2.413570934239623E+08, 9.378632000919124E+07,
2461057.500000000, A.D. 2026-Jan-17 00:00:00.0000, 1.463252296676796E+08, 2.473024320912785E+08, 9.363956419760366E+07,
2461064.500000000, A.D. 2026-Jan-24 00:00:00.0000, 1.352221111795923E+08, 2.528129269650905E+08, 9.332814033419643E+07,
2461071.500000000, A.D. 2026-Jan-31 00:00:00.0000, 1.238795138364999E+08, 2.578757450477917E+08, 9.285143495243362E+07,
2461078.500000000, A.D. 2026-Feb-07 00:00:00.0000, 1.123159119735853E+08, 2.624785715918875E+08, 9.220908571756001E+07,
2461085.500000000, A.D. 2026-Feb-14 00:00:00.0000, 1.005504107311039E+08, 2.666096425854172E+08, 9.140098982731169E+07,
2461092.500000000, A.D. 2026-Feb-21 00:00:00.0000, 8.860274114199163E+07, 2.702577792384802E+08, 9.042731256273311E+07,
2461099.500000000, A.D. 2026-Feb-28 00:00:00.0000, 7.649325305418374E+07, 2.734124256116105E+08, 8.928849614631335E+07,
2461106.500000000, A.D. 2026-Mar-07 00:00:00.0000, 6.424290361656991E+07, 2.760636873919033E+08, 8.798526888503338E+07,
2461113.500000000, A.D. 2026-Mar-14 00:00:00.0000, 5.187324386825880E+07, 2.782023694325271E+08, 8.651865410134350E+07,
2461120.500000000, A.D. 2026-Mar-21 00:00:00.0000, 3.940640498848283E+07, 2.798200148982500E+08, 8.488997887751861E+07,
2461127.500000000, A.D. 2026-Mar-28 00:00:00.0000, 2.686508197002995E+07, 2.809089469520679E+08, 8.310088281705673E+07,
2461134.500000000, A.D. 2026-Apr-04 00:00:00.0000, 1.427251387167852E+07, 2.814623118970408E+08, 8.115332672623062E+07,
2461141.500000000, A.D. 2026-Apr-11 00:00:00.0000, 1.652460682820342E+06, 2.814741232717566E+08, 7.904960108296776E+07,
2461148.500000000, A.D. 2026-Apr-18 00:00:00.0000, -1.097082327515083E+07, 2.809393067221498E+08, 7.679233418995035E+07,
2461155.500000000, A.D. 2026-Apr-25 00:00:00.0000, -2.357261959232115E+07, 2.798537454568160E+08, 7.438449990686610E+07,
2461162.500000000, A.D. 2026-May-02 00:00:00.0000, -3.612777985160808E+07, 2.782143260054754E+08, 7.182942483943245E+07,
2461169.500000000, A.D. 2026-May-09 00:00:00.0000, -4.861076364854348E+07, 2.760189839227712E+08, 6.913079484306820E+07,
2461176.500000000, A.D. 2026-May-16 00:00:00.0000, -6.099568039433718E+07, 2.732667492555144E+08, 6.629266069576000E+07,
2461183.500000000, A.D. 2026-May-23 00:00:00.0000, -7.325633505454856E+07, 2.699577924584992E+08, 6.331944290385589E+07,
2461190.500000000, A.D. 2026-May-30 00:00:00.0000, -8.536628006543209E+07, 2.660934707224791E+08, 6.021593574035828E+07,
2461197.500000000, A.D. 2026-Jun-06 00:00:00.0000, -9.729887385542104E+07, 2.616763710314358E+08, 5.698731014046845E+07,
2461204.500000000, A.D. 2026-Jun-13 00:00:00.0000, -1.090273423946915E+08, 2.567103496765679E+08, 5.363911498406172E+07,
2461211.500000000, A.D. 2026-Jun-20 00:00:00.0000, -1.205248443350506E+08, 2.512005706727457E+08, 5.017727690596993E+07,
2461218.500000000, A.D. 2026-Jun-27 00:00:00.0000, -1.317645414355882E+08, 2.451535422247128E+08, 4.660809861333190E+07,
2461225.500000000, A.D. 2026-Jul-04 00:00:00.0000, -1.427196742187679E+08, 2.385771499121287E+08, 4.293825549645841E+07,
2461232.500000000, A.D. 2026-Jul-11 00:00:00.0000, -1.533636424918909E+08, 2.314806858842837E+08, 3.917479035547748E+07,
2461239.500000000, A.D. 2026-Jul-18 00:00:00.0000, -1.636700904632814E+08, 2.238748734990689E+08, 3.532510610066742E+07,
2461246.500000000, A.D. 2026-Jul-25 00:00:00.0000, -1.736129961777458E+08, 2.157718868083901E+08, 3.139695629839335E+07,
2461253.500000000, A.D. 2026-Aug-01 00:00:00.0000, -1.831667648947119E+08, 2.071853642390281E+08, 2.739843344054310E+07,
2461260.500000000, A.D. 2026-Aug-08 00:00:00.0000, -1.923063257846034E+08, 1.981304158364224E+08, 2.333795481646696E+07,
2461267.500000000, A.D. 2026-Aug-15 00:00:00.0000, -2.010072310357486E+08, 1.886236239407488E+08, 1.922424590653931E+07,
2461274.500000000, A.D. 2026-Aug-22 00:00:00.0000, -2.092457575599246E+08, 1.786830379630930E+08, 1.506632140959498E+07,
2461281.500000000, A.D. 2026-Aug-29 00:00:00.0000, -2.169990129372555E+08, 1.683281613833891E+08, 1.087346396964955E+07,
2461288.500000000, A.D. 2026-Sep-05 00:00:00.0000, -2.242450427245564E+08, 1.575799276546947E+08, 6.655200165960081E+06,
$$EOE